{
    "links": {
        "self": "http://www.neowsapp.com/rest/v1/neo/3547676?api_key=iIulBulltgU6a56xZRHN4H3l9WmuAYTsLGpBGhQ2"
    },
    "id": "3547676",
    "neo_reference_id": "3547676",
    "name": "(2010 SS16)",
    "designation": "2010 SS16",
    "nasa_jpl_url": "http://ssd.jpl.nasa.gov/sbdb.cgi?sstr=3547676",
    "absolute_magnitude_h": 23.4,
    "estimated_diameter": {
        "kilometers": {
            "estimated_diameter_min": 0.0555334912,
            "estimated_diameter_max": 0.1241766613
        },
        "meters": {
            "estimated_diameter_min": 55.5334911581,
            "estimated_diameter_max": 124.1766612574
        },
        "miles": {
            "estimated_diameter_min": 0.0345069009,
            "estimated_diameter_max": 0.0771597762
        },
        "feet": {
            "estimated_diameter_min": 182.1964991311,
            "estimated_diameter_max": 407.4037573197
        }
    },
    "is_potentially_hazardous_asteroid": false,
    "close_approach_data": [
        {
            "close_approach_date": "1986-10-02",
            "close_approach_date_full": "1986-Oct-02 02:59",
            "epoch_date_close_approach": 528605940000,
            "relative_velocity": {
                "kilometers_per_second": "13.9733902416",
                "kilometers_per_hour": "50304.2048698784",
                "miles_per_hour": "31257.0766315086"
            },
            "miss_distance": {
                "astronomical": "0.4408989005",
                "lunar": "171.5096722945",
                "kilometers": "65957536.400141935",
                "miles": "40984112.660491303"
            },
            "orbiting_body": "Earth"
        },
        {
            "close_approach_date": "1994-03-27",
            "close_approach_date_full": "1994-Mar-27 23:16",
            "epoch_date_close_approach": 764810160000,
            "relative_velocity": {
                "kilometers_per_second": "3.9796925291",
                "kilometers_per_hour": "14326.8931048806",
                "miles_per_hour": "8902.1742184187"
            },
            "miss_distance": {
                "astronomical": "0.9095731607",
                "lunar": "353.8239595123",
                "kilometers": "136070207.449887709",
                "miles": "84550106.2688360242"
            },
            "orbiting_body": "Juptr"
        },
        {
            "close_approach_date": "2010-11-04",
            "close_approach_date_full": "2010-Nov-04 11:37",
            "epoch_date_close_approach": 1288870620000,
            "relative_velocity": {
                "kilometers_per_second": "6.211145809",
                "kilometers_per_hour": "22360.1249125458",
                "miles_per_hour": "13893.7120602427"
            },
            "miss_distance": {
                "astronomical": "0.1359632979",
                "lunar": "52.8897228831",
                "kilometers": "20339819.764015473",
                "miles": "12638577.9427126074"
            },
            "orbiting_body": "Earth"
        },
        {
            "close_approach_date": "2018-01-20",
            "close_approach_date_full": "2018-Jan-20 13:29",
            "epoch_date_close_approach": 1516454940000,
            "relative_velocity": {
                "kilometers_per_second": "3.8562953743",
                "kilometers_per_hour": "13882.6633475224",
                "miles_per_hour": "8626.147122798"
            },
            "miss_distance": {
                "astronomical": "0.8545095119",
                "lunar": "332.4042001291",
                "kilometers": "127832802.874979653",
                "miles": "79431620.4133310914"
            },
            "orbiting_body": "Juptr"
        },
        {
            "close_approach_date": "2041-11-23",
            "close_approach_date_full": "2041-Nov-23 19:44",
            "epoch_date_close_approach": 2268848640000,
            "relative_velocity": {
                "kilometers_per_second": "5.2762605385",
                "kilometers_per_hour": "18994.5379385724",
                "miles_per_hour": "11802.4671985535"
            },
            "miss_distance": {
                "astronomical": "1.2608881049",
                "lunar": "490.4854728061",
                "kilometers": "188626174.801376563",
                "miles": "117206870.0667920494"
            },
            "orbiting_body": "Juptr"
        }
    ],
    "orbital_data": {
        "orbit_id": "18",
        "orbit_determination_date": "2017-04-06 08:56:30",
        "first_observation_date": "2010-09-30",
        "last_observation_date": "2010-12-02",
        "data_arc_in_days": 63,
        "observations_used": 63,
        "orbit_uncertainty": "6",
        "minimum_orbit_intersection": ".149763",
        "jupiter_tisserand_invariant": "3.009",
        "epoch_osculation": "2459000.5",
        "eccentricity": ".5997641944039663",
        "semi_major_axis": "2.852492895672544",
        "inclination": "1.039054649913016",
        "ascending_node_longitude": "192.1466881053417",
        "orbital_period": "1759.686426371905",
        "perihelion_distance": "1.141669792056464",
        "perihelion_argument": "206.8628704045367",
        "aphelion_distance": "4.563315999288625",
        "perihelion_time": "2459036.693044778538",
        "mean_anomaly": "352.5955579783965",
        "mean_motion": ".2045819042556591",
        "equinox": "J2000",
        "orbit_class": {
            "orbit_class_type": "AMO",
            "orbit_class_description": "Near-Earth asteroid orbits similar to that of 1221 Amor",
            "orbit_class_range": "1.017 AU < q (perihelion) < 1.3 AU"
        }
    },
    "is_sentry_object": false
}